{
  "type": "FeatureCollection",
  "features": [
    {
      "type": "Feature",
      "properties": {
        "norad_id": 36470,
        "name": "COSMOS 2251 DEB",
        "group": "cosmos-2251-debris",
        "lat": 66.84921190172683,
        "lon": 50.4169563671248,
        "alt_km": 527.2275657586451,
        "timestamp": "2025-12-03T17:47:51.115861+00:00",
        "meta_object_name": "COSMOS 2251 DEB",
        "meta_object_id": "1993-036BBV",
        "meta_epoch": "2025-12-02T03:03:18.136800",
        "meta_mean_motion": 15.05586615,
        "meta_eccentricity": 0.00218493,
        "meta_inclination": 73.8455,
        "meta_ra_of_asc_node": 276.4446,
        "meta_arg_of_pericenter": 104.1241,
        "meta_mean_anomaly": 256.2378,
        "meta_ephemeris_type": 0,
        "meta_classification_type": "U",
        "meta_norad_cat_id": 36470,
        "meta_element_set_no": 999,
        "meta_rev_at_epoch": 65934,
        "meta_bstar": 0.0040110233,
        "meta_mean_motion_dot": 0.00058582,
        "meta_mean_motion_ddot": 0,
        "tle_line1": "1 36470U 93036BBV 25336.12729325  .00058582  00000+0  40110-2 0  9996",
        "tle_line2": "2 36470  73.8455 276.4446 0021849 104.1241 256.2378 15.05586615659346"
      },
      "geometry": {
        "type": "Point",
        "coordinates": [
          50.4169563671248,
          66.84921190172683
        ]
      }
    },
    {
      "type": "Feature",
      "properties": {
        "norad_id": 36528,
        "name": "COSMOS 2251 DEB",
        "group": "cosmos-2251-debris",
        "lat": 58.88775172014988,
        "lon": -46.732988745504784,
        "alt_km": 789.8868402059179,
        "timestamp": "2025-12-03T17:47:51.115872+00:00",
        "meta_object_name": "COSMOS 2251 DEB",
        "meta_object_id": "1993-036BCN",
        "meta_epoch": "2025-11-28T19:45:32.756256",
        "meta_mean_motion": 14.30521775,
        "meta_eccentricity": 0.00858193,
        "meta_inclination": 74.0168,
        "meta_ra_of_asc_node": 170.5765,
        "meta_arg_of_pericenter": 223.2164,
        "meta_mean_anomaly": 136.2231,
        "meta_ephemeris_type": 0,
        "meta_classification_type": "U",
        "meta_norad_cat_id": 36528,
        "meta_element_set_no": 999,
        "meta_rev_at_epoch": 64228,
        "meta_bstar": 0.00075224171,
        "meta_mean_motion_dot": 2.015e-05,
        "meta_mean_motion_ddot": 0,
        "tle_line1": "1 36528U 93036BCN 25332.82329579  .00002015  00000+0  75224-3 0  9995",
        "tle_line2": "2 36528  74.0168 170.5765 0085819 223.2164 136.2231 14.30521775642289"
      },
      "geometry": {
        "type": "Point",
        "coordinates": [
          -46.732988745504784,
          58.88775172014988
        ]
      }
    },
    {
      "type": "Feature",
      "properties": {
        "norad_id": 36533,
        "name": "COSMOS 2251 DEB",
        "group": "cosmos-2251-debris",
        "lat": 14.883519597200182,
        "lon": 136.1149327396231,
        "alt_km": 728.7103495901611,
        "timestamp": "2025-12-03T17:47:51.115883+00:00",
        "meta_object_name": "COSMOS 2251 DEB",
        "meta_object_id": "1993-036BCT",
        "meta_epoch": "2025-12-02T10:15:35.914464",
        "meta_mean_motion": 14.49752107,
        "meta_eccentricity": 0.00491246,
        "meta_inclination": 74.0095,
        "meta_ra_of_asc_node": 134.2138,
        "meta_arg_of_pericenter": 285.2045,
        "meta_mean_anomaly": 74.3685,
        "meta_ephemeris_type": 0,
        "meta_classification_type": "U",
        "meta_norad_cat_id": 36533,
        "meta_element_set_no": 999,
        "meta_rev_at_epoch": 84335,
        "meta_bstar": 0.00057659582,
        "meta_mean_motion_dot": 2.227e-05,
        "meta_mean_motion_ddot": 0,
        "tle_line1": "1 36533U 93036BCT 25336.42749901  .00002227  00000+0  57660-3 0  9995",
        "tle_line2": "2 36533  74.0095 134.2138 0049124 285.2045  74.3685 14.49752107843351"
      },
      "geometry": {
        "type": "Point",
        "coordinates": [
          136.1149327396231,
          14.883519597200182
        ]
      }
    },
    {
      "type": "Feature",
      "properties": {
        "norad_id": 36539,
        "name": "COSMOS 2251 DEB",
        "group": "cosmos-2251-debris",
        "lat": -74.0108794175057,
        "lon": -16.460464180312677,
        "alt_km": 690.5125068709576,
        "timestamp": "2025-12-03T17:47:51.115894+00:00",
        "meta_object_name": "COSMOS 2251 DEB",
        "meta_object_id": "1993-036BCZ",
        "meta_epoch": "2025-12-03T08:20:08.109312",
        "meta_mean_motion": 14.59188198,
        "meta_eccentricity": 0.0027776,
        "meta_inclination": 74.0242,
        "meta_ra_of_asc_node": 73.0949,
        "meta_arg_of_pericenter": 219.543,
        "meta_mean_anomaly": 140.3709,
        "meta_ephemeris_type": 0,
        "meta_classification_type": "U",
        "meta_norad_cat_id": 36539,
        "meta_element_set_no": 999,
        "meta_rev_at_epoch": 83810,
        "meta_bstar": 0.0012029,
        "meta_mean_motion_dot": 5.676e-05,
        "meta_mean_motion_ddot": 0,
        "tle_line1": "1 36539U 93036BCZ 25337.34731608  .00005676  00000+0  12029-2 0  9998",
        "tle_line2": "2 36539  74.0242  73.0949 0027776 219.5430 140.3709 14.59188198838100"
      },
      "geometry": {
        "type": "Point",
        "coordinates": [
          -16.460464180312677,
          -74.0108794175057
        ]
      }
    },
    {
      "type": "Feature",
      "properties": {
        "norad_id": 36540,
        "name": "COSMOS 2251 DEB",
        "group": "cosmos-2251-debris",
        "lat": -70.69549546963582,
        "lon": 72.49205217661037,
        "alt_km": 694.7119586404124,
        "timestamp": "2025-12-03T17:47:51.115904+00:00",
        "meta_object_name": "COSMOS 2251 DEB",
        "meta_object_id": "1993-036BDA",
        "meta_epoch": "2025-12-02T20:51:21.650112",
        "meta_mean_motion": 14.58331663,
        "meta_eccentricity": 0.00153879,
        "meta_inclination": 74.0294,
        "meta_ra_of_asc_node": 199.3109,
        "meta_arg_of_pericenter": 270.0205,
        "meta_mean_anomaly": 89.9197,
        "meta_ephemeris_type": 0,
        "meta_classification_type": "U",
        "meta_norad_cat_id": 36540,
        "meta_element_set_no": 999,
        "meta_rev_at_epoch": 85866,
        "meta_bstar": 0.0013440093,
        "meta_mean_motion_dot": 6.206e-05,
        "meta_mean_motion_ddot": 0,
        "tle_line1": "1 36540U 93036BDA 25336.86900058  .00006206  00000+0  13440-2 0  9991",
        "tle_line2": "2 36540  74.0294 199.3109 0015387 270.0205  89.9197 14.58331663858664"
      },
      "geometry": {
        "type": "Point",
        "coordinates": [
          72.49205217661037,
          -70.69549546963582
        ]
      }
    },
    {
      "type": "Feature",
      "properties": {
        "norad_id": 36550,
        "name": "COSMOS 2251 DEB",
        "group": "cosmos-2251-debris",
        "lat": 29.29360685251643,
        "lon": -141.7461234543691,
        "alt_km": 834.8454007895616,
        "timestamp": "2025-12-03T17:47:51.115915+00:00",
        "meta_object_name": "COSMOS 2251 DEB",
        "meta_object_id": "1993-036BDL",
        "meta_epoch": "2025-12-02T08:00:24.910560",
        "meta_mean_motion": 14.27149643,
        "meta_eccentricity": 0.00787603,
        "meta_inclination": 74.0451,
        "meta_ra_of_asc_node": 211.5637,
        "meta_arg_of_pericenter": 264.4889,
        "meta_mean_anomaly": 94.7272,
        "meta_ephemeris_type": 0,
        "meta_classification_type": "U",
        "meta_norad_cat_id": 36550,
        "meta_element_set_no": 999,
        "meta_rev_at_epoch": 84447,
        "meta_bstar": 0.00078484278,
        "meta_mean_motion_dot": 1.953e-05,
        "meta_mean_motion_ddot": 0,
        "tle_line1": "1 36550U 93036BDL 25336.33362165  .00001953  00000+0  78484-3 0  9999",
        "tle_line2": "2 36550  74.0451 211.5637 0078760 264.4889  94.7272 14.27149643844475"
      },
      "geometry": {
        "type": "Point",
        "coordinates": [
          -141.7461234543691,
          29.29360685251643
        ]
      }
    },
    {
      "type": "Feature",
      "properties": {
        "norad_id": 36551,
        "name": "COSMOS 2251 DEB",
        "group": "cosmos-2251-debris",
        "lat": 6.13521822566497,
        "lon": -148.55011387948022,
        "alt_km": 596.8712491175065,
        "timestamp": "2025-12-03T17:47:51.115925+00:00",
        "meta_object_name": "COSMOS 2251 DEB",
        "meta_object_id": "1993-036BDM",
        "meta_epoch": "2025-12-01T04:16:57.552096",
        "meta_mean_motion": 15.01965558,
        "meta_eccentricity": 0.00505004,
        "meta_inclination": 73.8879,
        "meta_ra_of_asc_node": 38.501,
        "meta_arg_of_pericenter": 349.5182,
        "meta_mean_anomaly": 10.4947,
        "meta_ephemeris_type": 0,
        "meta_classification_type": "U",
        "meta_norad_cat_id": 36551,
        "meta_element_set_no": 999,
        "meta_rev_at_epoch": 66758,
        "meta_bstar": 0.0014137691,
        "meta_mean_motion_dot": 0.00019039,
        "meta_mean_motion_ddot": 0,
        "tle_line1": "1 36551U 93036BDM 25335.17844389  .00019039  00000+0  14138-2 0  9993",
        "tle_line2": "2 36551  73.8879  38.5010 0050500 349.5182  10.4947 15.01965558667585"
      },
      "geometry": {
        "type": "Point",
        "coordinates": [
          -148.55011387948022,
          6.13521822566497
        ]
      }
    }
  ]
}